{
  "type": "FeatureCollection",
  "features": [
    {
      "type": "Feature",
      "properties": {
        "norad_id": 26766,
        "name": "INTELSAT 10 (IS-10)",
        "group": "intelsat",
        "lat": 7.883358915526091,
        "lon": 127.2294044065683,
        "alt_km": 36151.998614023636,
        "timestamp": "2025-12-03T15:48:02.768818+00:00",
        "meta_object_name": "INTELSAT 10 (IS-10)",
        "meta_object_id": "2001-019A",
        "meta_epoch": "2025-12-02T11:35:38.856768",
        "meta_mean_motion": 0.99077787,
        "meta_eccentricity": 0.00076986,
        "meta_inclination": 8.6036,
        "meta_ra_of_asc_node": 61.2568,
        "meta_arg_of_pericenter": 218.3784,
        "meta_mean_anomaly": 148.6829,
        "meta_ephemeris_type": 0,
        "meta_classification_type": "U",
        "meta_norad_cat_id": 26766,
        "meta_element_set_no": 999,
        "meta_rev_at_epoch": 4363,
        "meta_bstar": 0,
        "meta_mean_motion_dot": -1.25e-06,
        "meta_mean_motion_ddot": 0,
        "tle_line1": "1 26766U 01019A   25336.48308862 -.00000125  00000+0  00000+0 0  9993",
        "tle_line2": "2 26766   8.6036  61.2568 0007698 218.3784 148.6829  0.99077787 43631"
      },
      "geometry": {
        "type": "Point",
        "coordinates": [
          127.2294044065683,
          7.883358915526091
        ]
      }
    },
    {
      "type": "Feature",
      "properties": {
        "norad_id": 26900,
        "name": "INTELSAT 902 (IS-902)",
        "group": "intelsat",
        "lat": -0.5573788388522032,
        "lon": -100.4078312862222,
        "alt_km": 35768.81163600823,
        "timestamp": "2025-12-03T15:48:02.768842+00:00",
        "meta_object_name": "INTELSAT 902 (IS-902)",
        "meta_object_id": "2001-039A",
        "meta_epoch": "2025-12-01T16:59:59.311968",
        "meta_mean_motion": 1.00270327,
        "meta_eccentricity": 0.00043097,
        "meta_inclination": 5.6187,
        "meta_ra_of_asc_node": 74.2002,
        "meta_arg_of_pericenter": 175.119,
        "meta_mean_anomaly": 26.3816,
        "meta_ephemeris_type": 0,
        "meta_classification_type": "U",
        "meta_norad_cat_id": 26900,
        "meta_element_set_no": 999,
        "meta_rev_at_epoch": 8871,
        "meta_bstar": 0,
        "meta_mean_motion_dot": -2.63e-06,
        "meta_mean_motion_ddot": 0,
        "tle_line1": "1 26900U 01039A   25335.70832537 -.00000263  00000+0  00000+0 0  9993",
        "tle_line2": "2 26900   5.6187  74.2002 0004309 175.1190  26.3816  1.00270327 88713"
      },
      "geometry": {
        "type": "Point",
        "coordinates": [
          -100.4078312862222,
          -0.5573788388522032
        ]
      }
    },
    {
      "type": "Feature",
      "properties": {
        "norad_id": 27380,
        "name": "INTELSAT 904 (IS-904)",
        "group": "intelsat",
        "lat": -2.906832548414918,
        "lon": -81.89875174790338,
        "alt_km": 35780.53985196556,
        "timestamp": "2025-12-03T15:48:02.768855+00:00",
        "meta_object_name": "INTELSAT 904 (IS-904)",
        "meta_object_id": "2002-007A",
        "meta_epoch": "2025-12-03T03:19:57.879840",
        "meta_mean_motion": 1.00269372,
        "meta_eccentricity": 0.00015814,
        "meta_inclination": 6.4293,
        "meta_ra_of_asc_node": 71.5412,
        "meta_arg_of_pericenter": 200.7188,
        "meta_mean_anomaly": 178.4698,
        "meta_ephemeris_type": 0,
        "meta_classification_type": "U",
        "meta_norad_cat_id": 27380,
        "meta_element_set_no": 999,
        "meta_rev_at_epoch": 4980,
        "meta_bstar": 0,
        "meta_mean_motion_dot": -2.1e-06,
        "meta_mean_motion_ddot": 0,
        "tle_line1": "1 27380U 02007A   25337.13886435 -.00000210  00000+0  00000+0 0  9999",
        "tle_line2": "2 27380   6.4293  71.5412 0001581 200.7188 178.4698  1.00269372 49801"
      },
      "geometry": {
        "type": "Point",
        "coordinates": [
          -81.89875174790338,
          -2.906832548414918
        ]
      }
    },
    {
      "type": "Feature",
      "properties": {
        "norad_id": 27426,
        "name": "DIRECTV 5 (TEMPO 1)",
        "group": "intelsat",
        "lat": 3.697717745347431,
        "lon": -160.35020594208513,
        "alt_km": 35779.60662276398,
        "timestamp": "2025-12-03T15:48:02.768867+00:00",
        "meta_object_name": "DIRECTV 5 (TEMPO 1)",
        "meta_object_id": "2002-023A",
        "meta_epoch": "2025-12-03T07:31:02.618400",
        "meta_mean_motion": 1.00271174,
        "meta_eccentricity": 0.00037716,
        "meta_inclination": 4.3763,
        "meta_ra_of_asc_node": 77.7633,
        "meta_arg_of_pericenter": 189.2865,
        "meta_mean_anomaly": 167.9916,
        "meta_ephemeris_type": 0,
        "meta_classification_type": "U",
        "meta_norad_cat_id": 27426,
        "meta_element_set_no": 999,
        "meta_rev_at_epoch": 8615,
        "meta_bstar": 0,
        "meta_mean_motion_dot": -4e-07,
        "meta_mean_motion_ddot": 0,
        "tle_line1": "1 27426U 02023A   25337.31322475 -.00000040  00000+0  00000+0 0  9998",
        "tle_line2": "2 27426   4.3763  77.7633 0003771 189.2865 167.9916  1.00271174 86158"
      },
      "geometry": {
        "type": "Point",
        "coordinates": [
          -160.35020594208513,
          3.697717745347431
        ]
      }
    },
    {
      "type": "Feature",
      "properties": {
        "norad_id": 27438,
        "name": "INTELSAT 905 (IS-905)",
        "group": "intelsat",
        "lat": 6.149229591254562,
        "lon": 172.58206945489994,
        "alt_km": 35784.0843467763,
        "timestamp": "2025-12-03T15:48:02.768878+00:00",
        "meta_object_name": "INTELSAT 905 (IS-905)",
        "meta_object_id": "2002-027A",
        "meta_epoch": "2025-12-02T09:56:38.679648",
        "meta_mean_motion": 1.00272936,
        "meta_eccentricity": 0.00030691,
        "meta_inclination": 6.2577,
        "meta_ra_of_asc_node": 72.1733,
        "meta_arg_of_pericenter": 187.1236,
        "meta_mean_anomaly": 184.1903,
        "meta_ephemeris_type": 0,
        "meta_classification_type": "U",
        "meta_norad_cat_id": 27438,
        "meta_element_set_no": 999,
        "meta_rev_at_epoch": 4939,
        "meta_bstar": 0,
        "meta_mean_motion_dot": 1.12e-06,
        "meta_mean_motion_ddot": 0,
        "tle_line1": "1 27438U 02027A   25336.41433657  .00000112  00000+0  00000+0 0  9999",
        "tle_line2": "2 27438   6.2577  72.1733 0003069 187.1236 184.1903  1.00272936 49393"
      },
      "geometry": {
        "type": "Point",
        "coordinates": [
          172.58206945489994,
          6.149229591254562
        ]
      }
    },
    {
      "type": "Feature",
      "properties": {
        "norad_id": 27445,
        "name": "GALAXY 3C (G-3C)",
        "group": "intelsat",
        "lat": 2.293585147572895,
        "lon": -145.06954254649787,
        "alt_km": 35781.84882109345,
        "timestamp": "2025-12-03T15:48:02.768889+00:00",
        "meta_object_name": "GALAXY 3C (G-3C)",
        "meta_object_id": "2002-030A",
        "meta_epoch": "2025-12-02T21:53:42.294048",
        "meta_mean_motion": 1.00270323,
        "meta_eccentricity": 0.00012829,
        "meta_inclination": 3.2379,
        "meta_ra_of_asc_node": 80.605,
        "meta_arg_of_pericenter": 98.4026,
        "meta_mean_anomaly": 126.5707,
        "meta_ephemeris_type": 0,
        "meta_classification_type": "U",
        "meta_norad_cat_id": 27445,
        "meta_element_set_no": 999,
        "meta_rev_at_epoch": 4452,
        "meta_bstar": 0,
        "meta_mean_motion_dot": -1.34e-06,
        "meta_mean_motion_ddot": 0,
        "tle_line1": "1 27445U 02030A   25336.91229507 -.00000134  00000+0  00000+0 0  9998",
        "tle_line2": "2 27445   3.2379  80.6050 0001282  98.4026 126.5707  1.00270323 44520"
      },
      "geometry": {
        "type": "Point",
        "coordinates": [
          -145.06954254649787,
          2.293585147572895
        ]
      }
    },
    {
      "type": "Feature",
      "properties": {
        "norad_id": 27513,
        "name": "INTELSAT 906 (IS-906)",
        "group": "intelsat",
        "lat": -4.63852957755746,
        "lon": 14.048156808602087,
        "alt_km": 35793.711163791515,
        "timestamp": "2025-12-03T15:48:02.768901+00:00",
        "meta_object_name": "INTELSAT 906 (IS-906)",
        "meta_object_id": "2002-041A",
        "meta_epoch": "2025-12-03T05:29:56.806080",
        "meta_mean_motion": 1.00273105,
        "meta_eccentricity": 0.00061177,
        "meta_inclination": 5.3049,
        "meta_ra_of_asc_node": 75.3442,
        "meta_arg_of_pericenter": 192.1114,
        "meta_mean_anomaly": 311.4883,
        "meta_ephemeris_type": 0,
        "meta_classification_type": "U",
        "meta_norad_cat_id": 27513,
        "meta_element_set_no": 999,
        "meta_rev_at_epoch": 8506,
        "meta_bstar": 0,
        "meta_mean_motion_dot": 2.9e-07,
        "meta_mean_motion_ddot": 0,
        "tle_line1": "1 27513U 02041A   25337.22912970  .00000029  00000+0  00000+0 0  9996",
        "tle_line2": "2 27513   5.3049  75.3442 0006117 192.1114 311.4883  1.00273105 85066"
      },
      "geometry": {
        "type": "Point",
        "coordinates": [
          14.048156808602087,
          -4.63852957755746
        ]
      }
    }
  ]
}